NORAD_CAT_ID,OBJECT_NAME,OBJECT_TYPE,EPOCH,MEAN_MOTION,ECCENTRICITY,INCLINATION,RA_OF_ASC_NODE,ARG_OF_PERICENTER,MEAN_ANOMALY,BSTAR,MEAN_MOTION_DOT,MEAN_MOTION_DDOT,TLE_LINE0,TLE_LINE1,TLE_LINE2,SEMIMAJOR_AXIS,PERIOD,APOGEE,PERIGEE,DECAYED
52492.0,STARLINK-3916,PAYLOAD,2022-07-20 14:00:01,15.54125392,0.0001452,53.2176,254.8846,50.8529,200.2183,-0.01756,-0.01055476,0.0,0 STARLINK-3916,1 52492U 22049AT  22201.58334491 -.01055476  00000-0 -17560-1 0  9993,2 52492  53.2176 254.8846 0001452  50.8529 200.2183 15.54125392  1303,6782.833000000001,92.657,405.6830000000001,403.713,0.0
52492.0,STARLINK-3916,PAYLOAD,2022-07-20 22:00:01,15.5336956,0.000157,53.2176,253.2829,34.8927,281.7893,-0.018179,-0.01062184,0.0,0 STARLINK-3916,1 52492U 22049AT  22201.91668981 -.01062184  00000-0 -18179-1 0  9995,2 52492  53.2176 253.2829 0001570  34.8927 281.7893 15.53369560  1300,6785.033,92.702,407.964,405.833,0.0
52492.0,STARLINK-3916,PAYLOAD,2022-07-21 06:00:00,15.52610792,0.0001723,53.2177,251.6854,29.8439,351.4059,-0.018701,-0.01062848,0.0,0 STARLINK-3916,1 52492U 22049AT  22202.25001157 -.01062848  00000-0 -18701-1 0  9997,2 52492  53.2177 251.6854 0001723  29.8439 351.4059 15.52610792 12107,6787.244000000002,92.747,410.278,407.939,0.0
52492.0,STARLINK-3916,PAYLOAD,2022-07-21 14:00:01,15.51845931,0.0001536,53.2174,250.0907,40.8475,44.1887,-0.019045,-0.01053644,0.0,0 STARLINK-3916,1 52492U 22049AT  22202.58335648 -.01053644  00000-0 -19045-1 0  9994,2 52492  53.2174 250.0907 0001536  40.8475  44.1887 15.51845931  1300,6789.474,92.793,412.382,410.296,0.0
52492.0,STARLINK-3916,PAYLOAD,2022-07-21 22:00:00,15.51078953,0.0001606,53.2175,248.4942,38.4786,109.3038,-0.019264,-0.01038219,0.0,0 STARLINK-3916,1 52492U 22049AT  22202.91667824 -.01038219  00000-0 -19264-1 0  9999,2 52492  53.2175 248.4942 0001606  38.4786 109.3038 15.51078953  1301,6791.712,92.839,414.667,412.486,0.0
52492.0,STARLINK-3916,PAYLOAD,2022-07-22 06:00:00,15.50232808,0.0001814,53.2175,246.9009,31.3666,178.3174,-0.0082291,-0.00447324,0.0,0 STARLINK-3916,1 52492U 22049AT  22203.25001157 -.00447324  00000-0 -82291-2 0  9999,2 52492  53.2175 246.9009 0001814  31.3666 178.3174 15.50232808 12251,6794.183000000001,92.889,417.28,414.815,0.0
52492.0,STARLINK-3916,PAYLOAD,2022-07-22 12:00:00,15.49883027,0.0001911999999999,53.2175,245.7074,30.7027,134.8879,5.9196e-05,2.909e-05,0.0,0 STARLINK-3916,1 52492U 22049AT  22203.50001157  .00002909  00000-0  59196-4 0  9991,2 52492  53.2175 245.7074 0001912  30.7027 134.8879 15.49883027 12299,6795.205,92.91,418.369,415.771,0.0
52492.0,STARLINK-3916,PAYLOAD,2022-07-22 22:00:00,15.49884023,0.0001457,53.2174,243.7141,47.7226,284.0112,4.1728e-05,1.917e-05,0.0,0 STARLINK-3916,1 52492U 22049AT  22203.91667824  .00001917  00000-0  41728-4 0  9995,2 52492  53.2174 243.7141 0001457  47.7226 284.0112 15.49884023  1309,6795.2019999999975,92.91,418.057,416.077,0.0
52492.0,STARLINK-3916,PAYLOAD,2022-07-23 08:00:01,15.49921002,0.0001849,53.215,241.716,38.111,99.5654,-0.00026852,-0.00015681,0.0,0 STARLINK-3916,1 52492U 22049AT  22204.33334491 -.00015681  00000-0 -26852-3 0  9998,2 52492  53.2150 241.7160 0001849  38.1110  99.5654 15.49921002 12427,6795.094,92.908,418.215,415.703,0.0
52492.0,STARLINK-3916,PAYLOAD,2022-07-23 14:00:01,15.49895103,0.0001956999999999,53.2151,240.5221,34.3662,59.0821,0.00089867,0.00050905,0.0,0 STARLINK-3916,1 52492U 22049AT  22204.58335648  .00050905  00000-0  89867-3 0  9991,2 52492  53.2151 240.5221 0001957  34.3662  59.0821 15.49895103  1307,6795.17,92.91,418.364,415.705,0.0
52492.0,STARLINK-3916,PAYLOAD,2022-07-23 22:00:00,15.49904477,0.0001771,53.2153,238.9276,38.1805,116.1577,0.00077316,0.00043706,0.0,0 STARLINK-3916,1 52492U 22049AT  22204.91667824  .00043706  00000-0  77316-3 0  9999,2 52492  53.2153 238.9276 0001771  38.1805 116.1577 15.49904477  1303,6795.142,92.909,418.211,415.804,0.0
52492.0,STARLINK-3916,PAYLOAD,2022-07-24 06:00:00,15.49988731,0.0001966,53.2164,237.3387,41.7328,173.5447,-0.0023315,-0.00131076,0.0,0 STARLINK-3916,1 52492U 22049AT  22205.25001157 -.00131076  00000-0 -23315-2 0  9997,2 52492  53.2164 237.3387 0001966  41.7328 173.5447 15.49988731 12565,6794.896,92.904,418.097,415.425,0.0
52492.0,STARLINK-3916,PAYLOAD,2022-07-24 14:00:01,15.50014788,0.0001793,53.2166,235.7509,41.0205,235.2318,-0.016334,-0.00850447,0.0,0 STARLINK-3916,1 52492U 22049AT  22205.58334491 -.00850447  00000-0 -16334-1 0  9995,2 52492  53.2166 235.7509 0001793  41.0205 235.2318 15.50014788  1307,6794.82,92.902,417.903,415.467,0.0
52492.0,STARLINK-3916,PAYLOAD,2022-07-24 22:00:00,15.49408439,0.0001673,53.2175,234.1604,30.5206,306.4361,-0.020839,-0.01056272,0.0,0 STARLINK-3916,1 52492U 22049AT  22205.91667824 -.01056272  00000-0 -20839-1 0  9991,2 52492  53.2175 234.1604 0001673  30.5206 306.4361 15.49408439  1304,6796.592,92.939,419.595,417.32,0.0
52492.0,STARLINK-3916,PAYLOAD,2022-07-25 14:00:01,15.47890612,0.0001517,53.2172,230.9872,43.2437,52.5525,-0.021997,-0.01056695,0.0,0 STARLINK-3916,1 52492U 22049AT  22206.58334491 -.01056695  00000-0 -21997-1 0  9991,2 52492  53.2172 230.9872 0001517  43.2437  52.5525 15.47890612 12776,6801.035,93.03,423.932,421.86800000000005,0.0
52492.0,STARLINK-3916,PAYLOAD,2022-07-25 22:00:00,15.47130072,0.0001530999999999,53.2173,229.4007,47.2404,106.6091,-0.022568,-0.01055732,0.0,0 STARLINK-3916,1 52492U 22049AT  22206.91667824 -.01055732  00000-0 -22568-1 0  9993,2 52492  53.2173 229.4007 0001531  47.2404 106.6091 15.47130072  1307,6803.263000000001,93.076,426.17,424.087,0.0
52492.0,STARLINK-3916,PAYLOAD,2022-07-26 06:00:00,15.46369633,0.0001836,53.2175,227.819,38.5321,172.4558,-0.0231229999999999,-0.01053714,0.0,0 STARLINK-3916,1 52492U 22049AT  22207.25001157 -.01053714  00000-0 -23123-1 0  9998,2 52492  53.2175 227.8190 0001836  38.5321 172.4558 15.46369633 12872,6805.494000000002,93.121,428.608,426.109,0.0
52492.0,STARLINK-3916,PAYLOAD,2022-07-26 14:00:01,15.45613361,0.00014,53.2171,226.2384,52.2474,214.9651,-0.023852,-0.01058243,0.0,0 STARLINK-3916,1 52492U 22049AT  22207.58334491 -.01058243  00000-0 -23852-1 0  9995,2 52492  53.2171 226.2384 0001400  52.2474 214.9651 15.45613361  1306,6807.7130000000025,93.167,430.532,428.625,0.0
52492.0,STARLINK-3916,PAYLOAD,2022-07-26 22:00:00,15.44850528,0.0001358,53.2173,224.6572,46.3187,276.2101,-0.024369,-0.01053588,0.0,0 STARLINK-3916,1 52492U 22049AT  22207.91667824 -.01053588  00000-0 -24369-1 0  9992,2 52492  53.2173 224.6572 0001358  46.3187 276.2101 15.44850528  1304,6809.954000000002,93.213,432.744,430.895,0.0
52492.0,STARLINK-3916,PAYLOAD,2022-07-27 14:00:01,15.43333603,0.0001383,53.2172,221.5058,47.8695,22.5465,-0.025719,-0.01055574,0.0,0 STARLINK-3916,1 52492U 22049AT  22208.58334491 -.01055574  00000-0 -25719-1 0  9994,2 52492  53.2172 221.5058 0001383  47.8695  22.5465 15.43333603  1300,6814.416,93.305,437.223,435.338,0.0
52492.0,STARLINK-3916,PAYLOAD,2022-07-27 16:00:00,15.4314408,0.000147,53.2174,221.1115,54.8869,118.7592,-0.025924,-0.01071837,0.0,0 STARLINK-3916,1 52492U 22049AT  22208.66667824 -.01071837  00000-0 -25924-1 0  9990,2 52492  53.2174 221.1115 0001470  54.8869 118.7592 15.43144080 13097,6814.974,93.316,437.841,435.837,0.0
52492.0,STARLINK-3916,PAYLOAD,2022-07-27 22:00:00,15.42573691,0.0001651,53.2174,219.93,40.6826,82.3107,-0.026411,-0.01071191,0.0,0 STARLINK-3916,1 52492U 22049AT  22208.91667824 -.01071191  00000-0 -26411-1 0  9993,2 52492  53.2174 219.9300 0001651  40.6826  82.3107 15.42573691  1307,6816.654,93.35,439.644,437.393,0.0
52492.0,STARLINK-3916,PAYLOAD,2022-07-28 14:00:01,15.4105634,0.0001485,53.2172,216.7894,53.9259,171.4789,-0.027843,-0.01072928,0.0,0 STARLINK-3916,1 52492U 22049AT  22209.58334491 -.01072928  00000-0 -27843-1 0  9997,2 52492  53.2172 216.7894 0001485  53.9259 171.4789 15.41056340  1302,6821.127,93.442,444.005,441.98,0.0
52492.0,STARLINK-3916,PAYLOAD,2022-07-28 22:00:00,15.40293684,0.0001492,53.2174,215.2191,47.5822,227.6625,-0.028416,-0.0106794,0.0,0 STARLINK-3916,1 52492U 22049AT  22209.91667824 -.01067940  00000-0 -28416-1 0  9998,2 52492  53.2174 215.2191 0001492  47.5822 227.6625 15.40293684  1307,6823.379,93.489,446.262,444.226,0.0
52492.0,STARLINK-3916,PAYLOAD,2022-07-29 00:00:00,15.4010362,0.0001484,53.2176,214.8275,41.9214,335.6399,-0.028567,-0.01066938,0.0,0 STARLINK-3916,1 52492U 22049AT  22210.00001157 -.01066938  00000-0 -28567-1 0  9994,2 52492  53.2176 214.8275 0001484  41.9214 335.6399 15.40103620 13302,6823.94,93.5,446.818,444.793,0.0
52492.0,STARLINK-3916,PAYLOAD,2022-07-29 14:00:01,15.38777432,0.0001406999999999,53.2172,212.0893,44.3355,327.8444,-0.0299839999999999,-0.01071395,0.0,0 STARLINK-3916,1 52492U 22049AT  22210.58334491 -.01071395  00000-0 -29984-1 0  9994,2 52492  53.2172 212.0893 0001407  44.3355 327.8444 15.38777432  1308,6827.86,93.581,450.686,448.765,0.0
52492.0,STARLINK-3916,PAYLOAD,2022-07-29 22:00:00,15.38014853,0.0001496,53.2174,210.5246,42.9728,16.3092,-0.030622,-0.01067487,0.0,0 STARLINK-3916,1 52492U 22049AT  22210.91667824 -.01067487  00000-0 -30622-1 0  9998,2 52492  53.2174 210.5246 0001496  42.9728  16.3092 15.38014853 13449,6830.1169999999975,93.627,453.004,450.96,0.0
52492.0,STARLINK-3916,PAYLOAD,2022-07-30 14:00:01,15.36497199,0.0001608,53.2172,207.4054,47.9192,102.8225,-0.032202,-0.01068334,0.0,0 STARLINK-3916,1 52492U 22049AT  22211.58334491 -.01068334  00000-0 -32202-1 0  9991,2 52492  53.2172 207.4054 0001608  47.9192 102.8225 15.36497199  1301,6834.614000000001,93.72,457.578,455.38,0.0
52492.0,STARLINK-3916,PAYLOAD,2022-07-30 22:00:00,15.35738082,0.0001727,53.2173,205.8463,43.5631,151.541,-0.03305,-0.01069767,0.0,0 STARLINK-3916,1 52492U 22049AT  22211.91667824 -.01069767  00000-0 -33050-1 0  9990,2 52492  53.2173 205.8463 0001727  43.5631 151.5410 15.35738082 13599,6836.866,93.766,459.912,457.55,0.0
